ONEWEB-0627             
1 55168U 23004AE  23087.96877755  .00004888  00000+0  89460-3 0  9995
2 55168  86.6234 252.3385 0001143  42.2991 317.8311 14.65696803 11655
ONEWEB-0628             
1 55169U 23004AF  23087.68958094  .00001622  00000+0  29285-3 0  9993
2 55169  86.6264 252.4748 0013760 325.3870  34.6446 14.65828951 11612
ONEWEB-0629             
1 55170U 23004AG  23088.00692010  .00001623  00000+0  29351-3 0  9990
2 55170  86.6260 252.2939 0014845 324.5559  35.4667 14.65746943 11669
ONEWEB-0631             
1 55171U 23004AH  23087.49806902  .00001731  00000+0  31220-3 0  9998
2 55171  86.6256 252.5693 0013978 324.7491  35.2797 14.65920469 11588
ONEWEB-0709             
1 55172U 23004AJ  23088.08334491 -.00962176  00000+0 -85194+0 0  9990
2 55172  87.3667 256.1710 0011946  15.9482 355.4352 13.88127867 11450
ONEWEB-0710             
1 55173U 23004AK  23087.98798689  .00001669  00000+0  30169-3 0  9997
2 55173  86.6240 252.3743 0012714 322.3228  37.7094 14.65795384 11657
ONEWEB-0711             
1 55174U 23004AL  23087.58334491 -.00981637  00000+0 -95047+0 0  9997
2 55174  87.2968 256.2742 0006749 309.1995 358.1500 13.82971338  1305
ONEWEB-0713             
1 55175U 23004AM  23088.08334491 -.00939550  00000+0 -91628+0 0  9992
2 55175  87.3007 256.0749 0008714 343.3482 335.1370 13.82401262 11429
ONEWEB-0715             
1 55176U 23004AN  23088.08334491 -.00987706  00000+0 -84528+0 0  9990
2 55176  87.3496 256.2321 0012404 333.1063 320.8089 13.90186236 11454
ONEWEB-0716             
1 55177U 23004AP  23088.00095492  .00001050  00000+0  18844-3 0  9997
2 55177  86.6231 252.3869 0011264 321.5126  38.5283 14.65751879 11657
ONEWEB-0717             
1 55178U 23004AQ  23087.98263944  .00001532  00000+0  27710-3 0  9990
2 55178  86.6181 252.4304 0007760 319.5627  40.5009 14.65757998 11642
ONEWEB-0719             
1 55179U 23004AR  23088.08334491 -.00056972  00000+0 -10555-1 0  9996
2 55179  86.6206 252.3874 0000888 122.3455 127.7788 14.65799760 11651
ONEWEB-0530             
1 55796U 23029A   23087.36180522  .00007470  00000+0  74360-3 0  9995
2 55796  86.5130 191.1311 0011216 146.0261 214.1687 14.91456723  2772
ONEWEB-0534             
1 55797U 23029B   23088.00001157 -.00023875  00000+0 -24023-2 0  9993
2 55797  86.5085 190.8378 0011140 144.8638  35.8278 14.91420036  3550
ONEWEB-0556             
1 55798U 23029C   23087.42792055  .00007379  00000+0  73308-3 0  9993
2 55798  86.5123 191.0988 0011478 144.7443 215.4546 14.91536719  2785
ONEWEB-0562             
1 55799U 23029D   23087.83354042  .00008116  00000+0  81131-3 0  9992
2 55799  86.5087 190.9134 0010531 146.4675 213.7222 14.91304372  3524
ONEWEB-0563             
1 55800U 23029E   23087.56405901  .00007206  00000+0  71870-3 0  9994
2 55800  86.5131 191.0437 0010724 146.5767 213.6139 14.91382716  2806
ONEWEB-0564             
1 55801U 23029F   23087.22695103  .00007271  00000+0  72280-3 0  9991
2 55801  86.5091 191.1807 0011339 145.8716 214.3243 14.91508502  2754
ONEWEB-0638             
1 55802U 23029G   23087.35371839  .00007419  00000+0  72606-3 0  9999
2 55802  86.5115 191.1245 0013783 148.2824 211.9237 14.92112945  2771
ONEWEB-0639             
1 55803U 23029H   23087.58334491  .00028856  00000+0  32967-2 0  9991
2 55803  86.5512 191.0717 0010048 150.9472 206.0259 14.85884001  3485
ONEWEB-0640             
1 55804U 23029J   23087.81908342  .00010559  00000+0  10255-2 0  9997
2 55804  86.5100 190.9102 0014370 152.8380 207.3602 14.92438106  3526
ONEWEB-0641             
1 55805U 23029K   23087.58334491  .00031016  00000+0  34983-2 0  9995
2 55805  86.5530 191.0542 0012837 146.0012 272.9715 14.86376816  3487
ONEWEB-0642             
1 55806U 23029L   23087.58334491  .00029222  00000+0  33343-2 0  9991
2 55806  86.5553 191.0770 0010584 146.9848 222.6020 14.85930513  3489
ONEWEB-0643             
1 55807U 23029M   23087.35431825  .00007980  00000+0  78200-3 0  9995
2 55807  86.5100 191.1180 0013973 148.5436 211.6631 14.92063100  2774
ONEWEB-0644             
1 55808U 23029N   23087.58334491  .00028837  00000+0  32991-2 0  9992
2 55808  86.5549 191.0789 0010343 148.9988 209.3882 14.85824433  3487
ONEWEB-0645             
1 55809U 23029P   23087.58334491  .00031109  00000+0  35205-2 0  9990
2 55809  86.5559 191.0608 0013081 145.3498 276.1483 14.86236902  3486
ONEWEB-0646             
1 55810U 23029Q   23087.58334491  .00028888  00000+0  33173-2 0  9994
2 55810  86.5566 191.0796 0010336 147.8528 211.8689 14.85672208  1300
ONEWEB-0648             
1 55811U 23029R   23087.82255824 -.00004080  00000+0 -40432-3 0  9991
2 55811  86.5105 190.9119 0014126 146.3117 213.9012 14.92135770  3543
ONEWEB-0649             
1 55812U 23029S   23087.58334491  .00030368  00000+0  34025-2 0  9999
2 55812  86.5460 191.0568 0011254 142.2984 249.6450 14.86665431  3484
ONEWEB-0650             
1 55813U 23029T   23087.58334491  .00030731  00000+0  34761-2 0  9991
2 55813  86.5544 191.0616 0012735 145.1500 264.3415 14.86261298  3481
ONEWEB-0652             
1 55814U 23029U   23087.82479123  .00007276  00000+0  71419-3 0  9991
2 55814  86.5100 190.9102 0013657 146.0957 214.1146 14.91989106  3528
ONEWEB-0653             
1 55815U 23029V   23087.35567665  .00007271  00000+0  71451-3 0  9990
2 55815  86.5112 191.1258 0013385 146.8638 213.3431 14.91950275  2778
ONEWEB-0654             
1 55816U 23029W   23087.81890553  .00007313  00000+0  70927-3 0  9991
2 55816  86.5114 190.9110 0015046 152.2014 208.0021 14.92454705  3528
ONEWEB-0656             
1 55817U 23029X   23087.27898314  .00007022  00000+0  67607-3 0  9993
2 55817  86.5096 191.1457 0015286 158.4652 201.7223 14.92736218  2768
ONEWEB-0657             
1 55818U 23029Y   23088.00001157 -.00649316  00000+0 -78418-1 0  9997
2 55818  86.5569 190.8687 0013618 144.2009 357.8082 14.86526800  3541
ONEWEB-0658             
1 55819U 23029Z   23087.58334491  .00031421  00000+0  35146-2 0  9992
2 55819  86.5509 191.0491 0013282 145.9115 285.7531 14.86711519  3489
ONEWEB-0660             
1 55820U 23029AA  23087.82417396  .00007343  00000+0  71992-3 0  9993
2 55820  86.5112 190.9170 0013721 147.0481 213.1605 14.92037147  3549
ONEWEB-0661             
1 55821U 23029AB  23088.00001157 -.00022295  00000+0 -21787-2 0  9990
2 55821  86.5090 190.8281 0015049 152.0861 105.4284 14.92540721  3554
ONEWEB-0662             
1 55822U 23029AC  23087.35461038  .00007211  00000+0  70692-3 0  9995
2 55822  86.5115 191.1256 0013815 148.0587 212.1481 14.92036486  2774
ONEWEB-0663             
1 55823U 23029AD  23087.34690969  .00007318  00000+0  70599-3 0  9996
2 55823  86.5117 191.1181 0015106 157.2564 202.9337 14.92663632  2772
ONEWEB-0664             
1 55824U 23029AE  23088.00001157 -.00022106  00000+0 -21589-2 0  9994
2 55824  86.5086 190.8268 0015246 153.0677 106.1137 14.92561737  3557
ONEWEB-0665             
1 55825U 23029AF  23087.81958568  .00008376  00000+0  81376-3 0  9992
2 55825  86.5106 190.9104 0014814 151.4386 208.7657 14.92401605  3520
ONEWEB-0666             
1 55826U 23029AG  23087.34745301  .00007019  00000+0  67787-3 0  9993
2 55826  86.5124 191.1197 0015134 156.4232 203.7693 14.92615647  2771
ONEWEB-0667             
1 55827U 23029AH  23087.34549000  .00006878  00000+0  66140-3 0  9996
2 55827  86.5106 191.1161 0015399 158.8433 201.3436 14.92778480  2779
ONEWEB-0669             
1 55828U 23029AJ  23087.34650513  .00007685  00000+0  74076-3 0  9993
2 55828  86.5094 191.1158 0015147 157.6969 202.4921 14.92701184  2772
ONEWEB-0670             
1 55829U 23029AK  23088.00001157  .00067761  00000+0  65425-2 0  9990
2 55829  86.5114 190.8308 0014896 150.8101 104.8976 14.92440903  3553
ONEWEB-0671             
1 55830U 23029AL  23087.58334491  .00030814  00000+0  34895-2 0  9990
2 55830  86.5543 191.0575 0013159 145.6163 267.1098 14.86210458  3484
ONEWEB-0672             
1 55831U 23029AM  23087.81630417  .00001901  00000+0  18133-3 0  9997
2 55831  86.5094 190.9085 0015654 153.8874 206.3147 14.92654707  3523
ONEWEB-0673             
1 55832U 23029AN  23088.00001157 -.00023643  00000+0 -27100-2 0  9995
2 55832  86.5509 190.8816 0011454 143.8572 310.1865 14.86139030  3570
ONEWEB-0674             
1 55833U 23029AP  23088.00001157 -.00022095  00000+0 -21582-2 0  9994
2 55833  86.5120 190.8315 0015221 152.6725 105.7759 14.92554311  3556
ONEWEB-0675             
1 55834U 23029AQ  23087.58334491  .00030600  00000+0  34406-2 0  9995
2 55834  86.5503 191.0610 0011496 144.3129 256.1564 14.86518138  3510
ONEWEB-0720             
1 55835U 23029AR  23088.00001157 -.00730776  00000+0 -12096+0 0  9995
2 55835  86.6320 191.0184 0009599 147.5813 328.2313 14.73242248  3549
ONEWEB A                
1 56046U 23043A   23087.66668981  .00035877  00000+0  92517-3 0  9999
2 56046  87.4247 141.7144 0011373 265.7474 143.2129 15.38966050  1306
ONEWEB B                
1 56047U 23043B   23087.66668981  .00036246  00000+0  93350-3 0  9997
2 56047  87.4260 141.7136 0011256 265.1340 144.1632 15.39004810  1306
ONEWEB C                
1 56048U 23043C   23087.66668981  .00036499  00000+0  93470-3 0  9991
2 56048  87.4231 141.7150 0010683 262.2527 148.6772 15.39184876  1304
ONEWEB D                
1 56049U 23043D   23087.66668981  .00036790  00000+0  91545-3 0  9997
2 56049  87.4237 141.7131 0006992 256.4684 162.5701 15.40096299  1307
ONEWEB E                
1 56050U 23043E   23087.66668981  .00035380  00000+0  92122-3 0  9995
2 56050  87.4262 141.7151 0011682 272.5364 133.8222 15.38666531  1303
ONEWEB F                
1 56051U 23043F   23088.00001157  .00124477  00000+0  30911-2 0  9994
2 56051  87.4241 141.5995 0008202 252.3577 211.0394 15.39831435  1353
ONEWEB G                
1 56052U 23043G   23087.66668981  .00034997  00000+0  88624-3 0  9992
2 56052  87.4238 141.7131 0009514 254.9263 159.1818 15.39544334  1308
